STARLINK-2271
1 18008C 21024AH  21326.18506988 -.00694680  00000-0 -29342-1 0  3268
2 18008  53.0429  83.5789 0001632  43.9046  14.6881 15.23422649    10
